AEROCUBE 12A            
1 43556U 18046C   19243.51899363  .00001473  00000-0  64330-4 0  9990
2 43556  51.6424  62.4744 0008003 338.3098  21.7542 15.28856991 62855
AEROCUBE 12B            
1 43557U 18046D   19242.88533921  .00000051  00000-0  14463-4 0  9998
2 43557  51.6429  65.7397 0008094 336.5004  23.5605 15.28710242 62700
UITMSAT-1               
1 43589U 98067PD  19243.47966013  .00015073  00000-0  16675-3 0  9998
2 43589  51.6366 330.3118 0005597  66.9187 293.2397 15.63230804 60283
MAYA-1                  
1 43590U 98067PE  19242.64283493  .00009422  00000-0  10652-3 0  9992
2 43590  51.6371 334.4786 0005681  65.0049 295.1535 15.63221949 60081
BHUTAN-1                
1 43591U 98067PF  19242.63080476  .00009367  00000-0  10569-3 0  9993
2 43591  51.6382 334.4263 0005826  65.4322 294.7280 15.63281966 60080
SIRIUSSAT-1             
1 43595U 98067PG  19242.78451928  .00009287  00000-0  10854-3 0  9995
2 43595  51.6371 335.4251 0003847  27.6331 332.4866 15.62383667 59269
SIRIUSSAT-2             
1 43596U 98067PH  19242.82242524  .00009299  00000-0  10936-3 0  9995
2 43596  51.6384 335.7209 0004366  27.6088 332.5137 15.62216276 59269
TANUSHA-3               
1 43597U 98067PJ  19243.50695564  .00021987  00000-0  23176-3 0  9996
2 43597  51.6363 329.7185 0004000  40.8126 319.3168 15.64171314 59406
SURFSAT                 
1 43614U 18070B   19242.94297935  .00001816  00000-0  48997-4 0  9997
2 43614  93.0276  33.8900 0017146  31.9396 328.2893 15.37758387 53669
CP7 (DAVE)              
1 43615U 18070C   19243.14800144  .00002152  00000-0  58191-4 0  9994
2 43615  93.0276  33.9742 0017292  30.6476 329.5783 15.37668780 53694
ELFIN-B                 
1 43616U 18070D   19242.92901660  .00002779  00000-0  73316-4 0  9996
2 43616  93.0241  33.7921 0018141  34.4917 325.7510 15.38382791 53670
ELFIN-A                 
1 43617U 18070E   19243.18084271  .00003439  00000-0  90568-4 0  9998
2 43617  93.0297  34.1684 0017150  30.9869 329.2393 15.38441237 53713
CUBEBEL-1 (BSUSAT-1)    
1 43666U 18083E   19243.33598213  .00000703  00000-0  38230-4 0  9998
2 43666  97.5170 267.3032 0013570 296.1194 160.4465 15.17681453 46453
DEBRISSAT-2             
1 43680U 98067PR  19242.86946385  .00018159  00000-0  18356-3 0  9998
2 43680  51.6373 332.2551 0003655  49.6581 310.4734 15.65379269 68044
CICERO 10               
1 43690U 18088A   19242.91417786  .00000592  00000-0  25789-4 0  9999
2 43690  85.0352 270.3012 0013032 304.6537  55.3474 15.19739775 44470
IRVINE01                
1 43693U 18088D   19242.88231697  .00001652  00000-0  71305-4 0  9996
2 43693  85.0328 269.7754 0015939 286.1848  73.7640 15.21583490 44493
PROXIMA I               
1 43694U 18088E   19242.90903873  .00000668  00000-0  27831-4 0  9993
2 43694  85.0295 269.5660 0017049 276.1630  83.7669 15.21463720 44511
PROXIMA II              
1 43696U 18088G   19243.17102493  .00000791  00000-0  33315-4 0  9995
2 43696  85.0296 269.3941 0017078 275.0066  84.9226 15.21469452 44540
FACSAT-1                
1 43721U 18096C   19243.42206988  .00001222  00000-0  49530-4 0  9991
2 43721  97.4548 313.1540 0019537  72.1566 288.1801 15.26432236 41989
CENTAURI-2              
1 43722U 18096D   19242.67050834  .00001383  00000-0  55295-4 0  9998
2 43722  97.4551 312.4766 0019712  75.0734 285.2686 15.26677684 41864
INNOSAT-2               
1 43738U 18096V   19243.47960608  .00002418  00000-0  88072-4 0  9992
2 43738  97.4555 314.1538 0026021  82.0122 278.4069 15.28889777 42052
SIRION PATHFINDER-2     
1 43759U 18099B   19243.47008193  .00000343  00000-0  36480-4 0  9991
2 43759  97.7402 314.5334 0015758  76.6597 283.6380 14.95151037 40446
CORVUS-BC 4             
1 43767U 18099K   19243.16887358 -.00000025  00000-0  30003-5 0  9998
2 43767  97.7390 313.9558 0013355  80.4408 279.8321 14.94596387 40393
MOVE-II                 
1 43780U 18099Y   19243.15627069  .00000632  00000-0  62771-4 0  9992
2 43780  97.7399 314.1316 0015249  88.1115 272.1852 14.95106965 40380
SPACEBEE-7              
1 43816U 18099BL  19243.15719369  .00000571  00000-0  56761-4 0  9991
2 43816  97.7414 314.3324 0015022  74.5696 285.7183 14.95451135 39951
SPACEBEE-5              
1 43817U 18099BM  19243.19764421  .00000829  00000-0  79475-4 0  9998
2 43817  97.7433 314.4781 0014625  75.6952 284.5892 14.95727881 39965
SPACEBEE-6              
1 43818U 18099BN  19242.74676977  .00000832  00000-0  80120-4 0  9990
2 43818  97.7420 313.9610 0014924  76.2481 284.0400 14.95539408 40040
SHIELDS 1               
1 43850U 18104B   19243.06372138  .00000042  00000-0  00000+0 0  9998
2 43850  85.0314   7.9516 0017245  64.9588 295.3523 15.21125789 39170
STF-1                   
1 43852U 18104D   19243.09102446  .00000042  00000-0  00000+0 0  9996
2 43852  85.0357   8.2331 0017382  76.2943 284.0275 15.20694616 39168
ZACUBE-2                
1 43907U 18111AH  19243.53211316  .00000529  00000-0  24379-4 0  9991
2 43907  97.2829 146.7193 0023469  90.6925 269.7002 15.24240655 37693
LUME 1                  
1 43908U 18111AJ  19243.45144757  .00000943  00000-0  41018-4 0  9996
2 43908  97.2829 146.6733 0023393  90.9547 269.4371 15.24427124 37685
AOBA VELOX-IV           
1 43940U 19003J   19243.41643986  .00001189  00000-0  51636-4 0  9997
2 43940  97.2716 299.1300 0025138 167.8522 247.9306 15.23969778 34317
CATSAT-2                
1 44029U 98067PV  19242.84919226  .00007977  00000-0  11320-3 0  9998
2 44029  51.6411 344.9177 0005152  62.0641 298.0872 15.57432521 32978
DELPHINI                
1 44030U 98067PW  19242.70788357  .00007169  00000-0  10181-3 0  9991
2 44030  51.6391 345.4552 0004911  58.4143 301.7328 15.57598590 32920
UNITE                   
1 44031U 98067PX  19243.49995126  .00007821  00000-0  11554-3 0  9993
2 44031  51.6404 342.5011 0003702  59.6535 300.4822 15.56367118 33036
TECHEDSAT 8             
1 44032U 98067PY  19243.48599836  .00033020  00000-0  37136-3 0  9995
2 44032  51.6387 337.9038 0003783  47.7849 312.3466 15.62268100 33077
CATSAT-1                
1 44033U 98067PZ  19242.84889163  .00006467  00000-0  93090-4 0  9997
2 44033  51.6412 344.9165 0005063  62.1353 298.0152 15.57427059 32884
RAAVANA-1               
1 44329U 98067QE  19243.49051668  .00007517  00000-0  12697-3 0  9998
2 44329  51.6423 346.9459 0007381   0.9769 359.1234 15.52688325 11728
UGUISU                  
1 44330U 98067QF  19242.78434462  .00004886  00000-0  85352-4 0  9993
2 44330  51.6423 350.4786 0007292 356.9851   3.1093 15.52635871 11592
NEPALISAT-1             
1 44331U 98067QG  19242.71649536  .00005028  00000-0  87386-4 0  9995
2 44331  51.6424 350.7765 0007376 359.3442   0.7537 15.52709816 11597
SPOOQY-1                
1 44332U 98067QH  19243.16526765  .00006748  00000-0  11453-3 0  9995
2 44332  51.6422 348.5222 0006168   3.5881 356.5153 15.52752526 11628
SPACEBEE-9              
1 44370U 19037F   19242.57689174  .00002756  00000-0  77020-4 0  9993
2 44370  45.0160 302.6395 0016793 270.7297  89.1668 15.39513230  9564
SPACEBEE-8              
1 44371U 19037G   19243.54013219  .00006696  00000-0  17200-3 0  9993
2 44371  45.0095 297.1558 0016842 278.0763  81.8227 15.39984671  9702
MOVE-IIB                
1 44398U 19038N   19242.89875102  .00001049  00000-0  64996-4 0  9999
2 44398  97.4941 203.7446 0027104  53.8417 306.5315 15.11639628  8522
SONATE                  
1 44400U 19038Q   19242.89731889  .00000445  00000-0  29753-4 0  9997
2 44400  97.4953 203.7473 0026779  52.2440 308.1211 15.11653693  8526
LUCKY-7                 
1 44406U 19038W   19243.08898162  .00000451  00000-0  29952-4 0  9991
2 44406  97.4952 203.9510 0026247  51.6177 308.7405 15.11841695  8549
BEESAT 9                
1 44412U 19038AC  19242.95861826  .00000659  00000-0  42114-4 0  9995
2 44412  97.4951 203.8175 0024516  57.6411 302.7188 15.11795787  8222
JAISAT-1                
1 44419U 19038F   19242.87390701  .00000524  00000-0  33845-4 0  9994
2 44419  97.4953 203.7779 0023369  57.9843 302.3654 15.12290185  8527
SWIATOWID               
1 44426U 98067QL  19243.51752150  .00012620  00000-0  21055-3 0  9992
2 44426  51.6432 347.1306 0004313 321.1654  38.9025 15.52346631  9204
KRAKSAT                 
1 44427U 98067QM  19243.53892904  .00003966  00000-0  72313-4 0  9994
2 44427  51.6447 347.0854 0003658 325.6492 122.5149 15.51991984  9245
VCC A                   
1 44428U 98067QN  19243.51497635  .00007857  00000-0  13441-3 0  9994
2 44428  51.6436 347.1143 0003357 341.5081  18.5786 15.52265657  9246
ENTRYSAT                
1 44429U 98067QP  19242.86922598  .00005942  00000-0  10321-3 0  9990
2 44429  51.6432 350.3015 0003128 329.8605  30.2205 15.52348863  9141
VCC C                   
1 44430U 98067QQ  19242.61334290  .00005791  00000-0  10091-3 0  9997
2 44430  51.6430 351.5920 0003334 338.1324  21.9523 15.52315334  7931
VCC B                   
1 44431U 98067QR  19242.67910217  .00004579  00000-0  81638-4 0  9992
2 44431  51.6432 351.2810 0003473 336.8592  23.2241 15.52226981  9051
